*******************************************************************************
Ephemeris / WWW_USER Mon Mar 24 08:25:13 2025 Pasadena, USA      / Horizons    
*******************************************************************************
Target body name: (2018 TG6)                      {source: JPL#30}
Center body name: Earth (399)                     {source: DE441}
Center-site name: Mauna Kea
*******************************************************************************
Start time      : A.D. 2018-Oct-10 04:12:00.0000 UT      
Stop  time      : A.D. 2018-Oct-10 16:05:00.0000 UT      
Step-size       : 1 minutes
*******************************************************************************
Target pole/equ : undefined
Target radii    : undefined                                                    
Center geodetic : 204.5278, 19.8260847, 4.21024   {E-lon(deg),Lat(deg),Alt(km)}
Center cylindric: 204.5278, 6006.35451, 2151.0229 {E-lon(deg),Dxy(km),Dz(km)}
Center pole/equ : ITRF93                          {East-longitude positive}
Center radii    : 6378.137, 6378.137, 6356.752 km {Equator_a, b, pole_c}       
Target primary  : Sun
Vis. interferer : MOON (R_eq= 1737.400) km        {source: DE441}
Rel. light bend : Sun                             {source: DE441}
Rel. lght bnd GM: 1.3271E+11 km^3/s^2                                          
Small-body perts: Yes                             {source: SB441-N16}
Atmos refraction: NO (AIRLESS)
RA format       : HMS
Time format     : CAL 
Calendar mode   : Mixed Julian/Gregorian
RTS-only print  : NO       
EOP file        : eop.250321.p250617                                           
EOP coverage    : DATA-BASED 1962-JAN-20 TO 2025-MAR-21. PREDICTS-> 2025-JUN-16
Units conversion: 1 au= 149597870.700 km, c= 299792.458 km/s, 1 day= 86400.0 s 
Table cut-offs 1: Elevation (-90.0deg=NO ),Airmass (>38.000=NO), Daylight (YES)
Table cut-offs 2: Solar elongation (  0.0,180.0=NO ),Local Hour Angle( 0.0=NO )
Table cut-offs 3: RA/DEC angular rate (     0.0=NO )                           
*******************************************************************************
Initial IAU76/J2000 heliocentric ecliptic osculating elements (au, days, deg.):
  EPOCH=  2458431.5 ! 2018-Nov-09.00 (TDB)         Residual RMS= .2345         
   EC= .08078462401503236  QR= .9719826736009184   TP= 2458484.4320189627      
   OM= 45.37159736002829   W=  55.46172815883946   IN= 1.097814612439332       
  Equivalent ICRF heliocentric cartesian coordinates (au, au/d):
   X= 7.039692724255667E-01  Y= 6.572194580492579E-01  Z= 2.849862807208282E-01
  VX=-1.330010453008250E-02 VY= 1.042346427712734E-02 VZ= 4.885657766154543E-03
Asteroid physical parameters (km, seconds, rotational period in hours):        
   GM= n.a.                RAD= n.a.               ROTPER= n.a.                
   H= 27.25                G= .150                 B-V= n.a.                   
                           ALBEDO= n.a.            STYP= n.a.                  
*******************************************************************************
 Date__(UT)__HR:MN     R.A._________(ICRF)_________DEC
******************************************************
$$SOE
 2018-Oct-10 14:27     01 30 56.287441 -04 00 39.52812
 2018-Oct-10 14:28     01 30 56.198617 -04 00 39.63246
 2018-Oct-10 14:29     01 30 56.109997 -04 00 39.73665
 2018-Oct-10 14:30     01 30 56.021583 -04 00 39.84069
 2018-Oct-10 14:31     01 30 55.933374 -04 00 39.94458
 2018-Oct-10 14:32     01 30 55.845372 -04 00 40.04833
 2018-Oct-10 14:33     01 30 55.757577 -04 00 40.15193
 2018-Oct-10 14:34     01 30 55.669988 -04 00 40.25538
 2018-Oct-10 14:35     01 30 55.582608 -04 00 40.35869
 2018-Oct-10 14:36     01 30 55.495436 -04 00 40.46186
 2018-Oct-10 14:37     01 30 55.408474 -04 00 40.56488
 2018-Oct-10 14:38     01 30 55.321721 -04 00 40.66777
 2018-Oct-10 14:39     01 30 55.235178 -04 00 40.77051
 2018-Oct-10 14:40     01 30 55.148846 -04 00 40.87311
 2018-Oct-10 14:41     01 30 55.062725 -04 00 40.97558
 2018-Oct-10 14:42     01 30 54.976816 -04 00 41.07791
 2018-Oct-10 14:43     01 30 54.891119 -04 00 41.18010
 2018-Oct-10 14:44     01 30 54.805636 -04 00 41.28216
 2018-Oct-10 14:45     01 30 54.720365 -04 00 41.38408
 2018-Oct-10 14:46     01 30 54.635308 -04 00 41.48587
 2018-Oct-10 14:47     01 30 54.550466 -04 00 41.58752
 2018-Oct-10 14:48     01 30 54.465839 -04 00 41.68905
 2018-Oct-10 14:49     01 30 54.381427 -04 00 41.79044
 2018-Oct-10 14:50     01 30 54.297231 -04 00 41.89170
 2018-Oct-10 14:51     01 30 54.213252 -04 00 41.99284
 2018-Oct-10 14:52     01 30 54.129489 -04 00 42.09384
 2018-Oct-10 14:53     01 30 54.045944 -04 00 42.19472
 2018-Oct-10 14:54     01 30 53.962617 -04 00 42.29548
 2018-Oct-10 14:55     01 30 53.879508 -04 00 42.39611
 2018-Oct-10 14:56     01 30 53.796618 -04 00 42.49661
 2018-Oct-10 14:57     01 30 53.713947 -04 00 42.59700
 2018-Oct-10 14:58     01 30 53.631496 -04 00 42.69726
 2018-Oct-10 14:59     01 30 53.549266 -04 00 42.79740
 2018-Oct-10 15:00     01 30 53.467256 -04 00 42.89742
 2018-Oct-10 15:01     01 30 53.385467 -04 00 42.99732
 2018-Oct-10 15:02 A   01 30 53.303900 -04 00 43.09710
 2018-Oct-10 15:03 A   01 30 53.222555 -04 00 43.19677
 2018-Oct-10 15:04 A   01 30 53.141432 -04 00 43.29632
 2018-Oct-10 15:05 A   01 30 53.060532 -04 00 43.39575
 2018-Oct-10 15:06 A   01 30 52.979856 -04 00 43.49507
 2018-Oct-10 15:07 A   01 30 52.899404 -04 00 43.59428
 2018-Oct-10 15:08 A   01 30 52.819176 -04 00 43.69338
 2018-Oct-10 15:09 A   01 30 52.739172 -04 00 43.79236
 2018-Oct-10 15:10 A   01 30 52.659394 -04 00 43.89124
 2018-Oct-10 15:11 A   01 30 52.579841 -04 00 43.99001
 2018-Oct-10 15:12 A   01 30 52.500514 -04 00 44.08867
 2018-Oct-10 15:13 A   01 30 52.421413 -04 00 44.18722
 2018-Oct-10 15:14 A   01 30 52.342539 -04 00 44.28566
 2018-Oct-10 15:15 A   01 30 52.263892 -04 00 44.38400
 2018-Oct-10 15:16 A   01 30 52.185472 -04 00 44.48224
 2018-Oct-10 15:17 A   01 30 52.107281 -04 00 44.58038
 2018-Oct-10 15:18 A   01 30 52.029317 -04 00 44.67841
 2018-Oct-10 15:19 A   01 30 51.951583 -04 00 44.77634
 2018-Oct-10 15:20 A   01 30 51.874077 -04 00 44.87417
 2018-Oct-10 15:21 A   01 30 51.796801 -04 00 44.97191
 2018-Oct-10 15:22 A   01 30 51.719754 -04 00 45.06954
 2018-Oct-10 15:23 A   01 30 51.642938 -04 00 45.16708
 2018-Oct-10 15:24 A   01 30 51.566352 -04 00 45.26453
 2018-Oct-10 15:25 A   01 30 51.489996 -04 00 45.36188
 2018-Oct-10 15:26 A   01 30 51.413872 -04 00 45.45913
 2018-Oct-10 15:27 A   01 30 51.337979 -04 00 45.55630
 2018-Oct-10 15:28 N   01 30 51.262319 -04 00 45.65337
 2018-Oct-10 15:29 N   01 30 51.186890 -04 00 45.75035
 2018-Oct-10 15:30 N   01 30 51.111694 -04 00 45.84724
 2018-Oct-10 15:31 N   01 30 51.036730 -04 00 45.94405
 2018-Oct-10 15:32 N   01 30 50.962000 -04 00 46.04076
 2018-Oct-10 15:33 N   01 30 50.887503 -04 00 46.13740
 2018-Oct-10 15:34 N   01 30 50.813240 -04 00 46.23394
 2018-Oct-10 15:35 N   01 30 50.739211 -04 00 46.33040
 2018-Oct-10 15:36 N   01 30 50.665417 -04 00 46.42678
 2018-Oct-10 15:37 N   01 30 50.591857 -04 00 46.52308
 2018-Oct-10 15:38 N   01 30 50.518531 -04 00 46.61929
 2018-Oct-10 15:39 N   01 30 50.445442 -04 00 46.71543
 2018-Oct-10 15:40 N   01 30 50.372587 -04 00 46.81149
 2018-Oct-10 15:41 N   01 30 50.299969 -04 00 46.90747
 2018-Oct-10 15:42 N   01 30 50.227586 -04 00 47.00337
 2018-Oct-10 15:43 N   01 30 50.155440 -04 00 47.09920
 2018-Oct-10 15:44 N   01 30 50.083530 -04 00 47.19495
 2018-Oct-10 15:45 N   01 30 50.011858 -04 00 47.29063
 2018-Oct-10 15:46 N   01 30 49.940422 -04 00 47.38624
 2018-Oct-10 15:47 N   01 30 49.869224 -04 00 47.48177
 2018-Oct-10 15:48 N   01 30 49.798263 -04 00 47.57724
 2018-Oct-10 15:49 N   01 30 49.727540 -04 00 47.67263
 2018-Oct-10 15:50 N   01 30 49.657056 -04 00 47.76796
 2018-Oct-10 15:51 N   01 30 49.586809 -04 00 47.86322
 2018-Oct-10 15:52 N   01 30 49.516801 -04 00 47.95842
 2018-Oct-10 15:53 N   01 30 49.447032 -04 00 48.05355
 2018-Oct-10 15:54 C   01 30 49.377502 -04 00 48.14861
 2018-Oct-10 15:55 C   01 30 49.308211 -04 00 48.24362
 2018-Oct-10 15:56 C   01 30 49.239159 -04 00 48.33856
 2018-Oct-10 15:57 C   01 30 49.170347 -04 00 48.43344
 2018-Oct-10 15:58 C   01 30 49.101775 -04 00 48.52826
 2018-Oct-10 15:59 C   01 30 49.033443 -04 00 48.62303
 2018-Oct-10 16:00 C   01 30 48.965351 -04 00 48.71773
 2018-Oct-10 16:01 C   01 30 48.897499 -04 00 48.81238
 2018-Oct-10 16:02 C   01 30 48.829888 -04 00 48.90698
 2018-Oct-10 16:03 C   01 30 48.762518 -04 00 49.00152
 2018-Oct-10 16:04 C   01 30 48.695389 -04 00 49.09601
 2018-Oct-10 16:05 C   01 30 48.628500 -04 00 49.19044
